[{"OBJECT_NAME":"STARLINK-36892","OBJECT_ID":"2026-037N","EPOCH":"2026-03-10T12:00:01.999296","MEAN_MOTION":15.82020008,"ECCENTRICITY":0.000158,"INCLINATION":42.9985,"RA_OF_ASC_NODE":193.4961,"ARG_OF_PERICENTER":288.5186,"MEAN_ANOMALY":330.7709,"EPHEMERIS_TYPE":0,"CLASSIFICATION_TYPE":"U","NORAD_CAT_ID":67944,"ELEMENT_SET_NO":999,"REV_AT_EPOCH":332,"BSTAR":-5.9732e-5,"MEAN_MOTION_DOT":-0.00013094,"MEAN_MOTION_DDOT":0},{"OBJECT_NAME":"STARLINK-36908","OBJECT_ID":"2026-037P","EPOCH":"2026-03-10T12:00:01.999296","MEAN_MOTION":15.82052981,"ECCENTRICITY":0.0001563,"INCLINATION":42.9983,"RA_OF_ASC_NODE":193.4731,"ARG_OF_PERICENTER":257.5897,"MEAN_ANOMALY":10.2436,"EPHEMERIS_TYPE":0,"CLASSIFICATION_TYPE":"U","NORAD_CAT_ID":67945,"ELEMENT_SET_NO":999,"REV_AT_EPOCH":332,"BSTAR":-0.00030164,"MEAN_MOTION_DOT":-0.00063692,"MEAN_MOTION_DDOT":0},{"OBJECT_NAME":"STARLINK-36909","OBJECT_ID":"2026-037Q","EPOCH":"2026-03-10T12:00:01.999296","MEAN_MOTION":15.82021752,"ECCENTRICITY":0.000146,"INCLINATION":42.9983,"RA_OF_ASC_NODE":193.4634,"ARG_OF_PERICENTER":270.4967,"MEAN_ANOMALY":1.6106,"EPHEMERIS_TYPE":0,"CLASSIFICATION_TYPE":"U","NORAD_CAT_ID":67946,"ELEMENT_SET_NO":999,"REV_AT_EPOCH":332,"BSTAR":-6.6019e-5,"MEAN_MOTION_DOT":-0.00014415,"MEAN_MOTION_DDOT":0},{"OBJECT_NAME":"STARLINK-36920","OBJECT_ID":"2026-037R","EPOCH":"2026-03-10T12:00:01.999296","MEAN_MOTION":15.82025053,"ECCENTRICITY":0.0001396,"INCLINATION":42.9984,"RA_OF_ASC_NODE":193.4517,"ARG_OF_PERICENTER":265.5254,"MEAN_ANOMALY":10.8579,"EPHEMERIS_TYPE":0,"CLASSIFICATION_TYPE":"U","NORAD_CAT_ID":67947,"ELEMENT_SET_NO":999,"REV_AT_EPOCH":332,"BSTAR":-0.00010532,"MEAN_MOTION_DOT":-0.00022661,"MEAN_MOTION_DDOT":0},{"OBJECT_NAME":"STARLINK-36873","OBJECT_ID":"2026-037S","EPOCH":"2026-03-10T12:00:01.999296","MEAN_MOTION":15.82044136,"ECCENTRICITY":0.0001405,"INCLINATION":42.9984,"RA_OF_ASC_NODE":193.4414,"ARG_OF_PERICENTER":279.6417,"MEAN_ANOMALY":1.1079,"EPHEMERIS_TYPE":0,"CLASSIFICATION_TYPE":"U","NORAD_CAT_ID":67948,"ELEMENT_SET_NO":999,"REV_AT_EPOCH":332,"BSTAR":-0.00082218,"MEAN_MOTION_DOT":-0.00170514,"MEAN_MOTION_DDOT":0},{"OBJECT_NAME":"STARLINK-36863","OBJECT_ID":"2026-037T","EPOCH":"2026-03-10T12:00:01.999296","MEAN_MOTION":15.82024418,"ECCENTRICITY":0.0001532,"INCLINATION":42.9985,"RA_OF_ASC_NODE":193.431,"ARG_OF_PERICENTER":265.5508,"MEAN_ANOMALY":19.3759,"EPHEMERIS_TYPE":0,"CLASSIFICATION_TYPE":"U","NORAD_CAT_ID":67949,"ELEMENT_SET_NO":999,"REV_AT_EPOCH":332,"BSTAR":-0.0001275,"MEAN_MOTION_DOT":-0.00027305,"MEAN_MOTION_DDOT":0},{"OBJECT_NAME":"STARLINK-36887","OBJECT_ID":"2026-037U","EPOCH":"2026-03-10T12:00:01.999296","MEAN_MOTION":15.82027391,"ECCENTRICITY":0.0001311,"INCLINATION":42.9985,"RA_OF_ASC_NODE":193.4201,"ARG_OF_PERICENTER":268.4358,"MEAN_ANOMALY":20.7562,"EPHEMERIS_TYPE":0,"CLASSIFICATION_TYPE":"U","NORAD_CAT_ID":67950,"ELEMENT_SET_NO":999,"REV_AT_EPOCH":332,"BSTAR":6.5597e-6,"MEAN_MOTION_DOT":8.49e-6,"MEAN_MOTION_DDOT":0},{"OBJECT_NAME":"STARLINK-36897","OBJECT_ID":"2026-037V","EPOCH":"2026-03-10T12:00:01.999296","MEAN_MOTION":15.81995792,"ECCENTRICITY":0.0001504,"INCLINATION":42.9985,"RA_OF_ASC_NODE":193.4097,"ARG_OF_PERICENTER":274.4866,"MEAN_ANOMALY":18.9933,"EPHEMERIS_TYPE":0,"CLASSIFICATION_TYPE":"U","NORAD_CAT_ID":67951,"ELEMENT_SET_NO":999,"REV_AT_EPOCH":332,"BSTAR":0.00023232,"MEAN_MOTION_DOT":0.00048613,"MEAN_MOTION_DDOT":0},{"OBJECT_NAME":"STARLINK-36381","OBJECT_ID":"2026-037W","EPOCH":"2026-03-10T12:00:01.999296","MEAN_MOTION":15.82024635,"ECCENTRICITY":0.0001497,"INCLINATION":42.9984,"RA_OF_ASC_NODE":193.3873,"ARG_OF_PERICENTER":258.5231,"MEAN_ANOMALY":43.4976,"EPHEMERIS_TYPE":0,"CLASSIFICATION_TYPE":"U","NORAD_CAT_ID":67952,"ELEMENT_SET_NO":999,"REV_AT_EPOCH":332,"BSTAR":-0.00011486,"MEAN_MOTION_DOT":-0.0002466,"MEAN_MOTION_DDOT":0},{"OBJECT_NAME":"STARLINK-36824","OBJECT_ID":"2026-037X","EPOCH":"2026-03-10T12:00:01.999296","MEAN_MOTION":15.82032937,"ECCENTRICITY":0.0001426,"INCLINATION":42.9986,"RA_OF_ASC_NODE":193.3978,"ARG_OF_PERICENTER":275.1601,"MEAN_ANOMALY":22.5772,"EPHEMERIS_TYPE":0,"CLASSIFICATION_TYPE":"U","NORAD_CAT_ID":67953,"ELEMENT_SET_NO":999,"REV_AT_EPOCH":332,"BSTAR":-0.00020516,"MEAN_MOTION_DOT":-0.00043549,"MEAN_MOTION_DDOT":0},{"OBJECT_NAME":"STARLINK-36869","OBJECT_ID":"2026-037Y","EPOCH":"2026-03-10T12:00:01.999296","MEAN_MOTION":15.82047188,"ECCENTRICITY":0.0001573,"INCLINATION":42.9985,"RA_OF_ASC_NODE":193.3764,"ARG_OF_PERICENTER":277.6293,"MEAN_ANOMALY":28.656,"EPHEMERIS_TYPE":0,"CLASSIFICATION_TYPE":"U","NORAD_CAT_ID":67954,"ELEMENT_SET_NO":999,"REV_AT_EPOCH":332,"BSTAR":-0.00022991,"MEAN_MOTION_DOT":-0.00048744,"MEAN_MOTION_DDOT":0},{"OBJECT_NAME":"STARLINK-36872","OBJECT_ID":"2026-037Z","EPOCH":"2026-03-10T12:00:01.999296","MEAN_MOTION":15.82056715,"ECCENTRICITY":0.0001467,"INCLINATION":42.9985,"RA_OF_ASC_NODE":193.3543,"ARG_OF_PERICENTER":262.8555,"MEAN_ANOMALY":51.9465,"EPHEMERIS_TYPE":0,"CLASSIFICATION_TYPE":"U","NORAD_CAT_ID":67955,"ELEMENT_SET_NO":999,"REV_AT_EPOCH":332,"BSTAR":-0.00027173,"MEAN_MOTION_DOT":-0.0005748,"MEAN_MOTION_DDOT":0},{"OBJECT_NAME":"STARLINK-36918","OBJECT_ID":"2026-037AA","EPOCH":"2026-03-10T12:00:01.999296","MEAN_MOTION":15.82080374,"ECCENTRICITY":0.0001602,"INCLINATION":42.9985,"RA_OF_ASC_NODE":193.3436,"ARG_OF_PERICENTER":268.1277,"MEAN_ANOMALY":50.9568,"EPHEMERIS_TYPE":0,"CLASSIFICATION_TYPE":"U","NORAD_CAT_ID":67956,"ELEMENT_SET_NO":999,"REV_AT_EPOCH":332,"BSTAR":-0.00058245,"MEAN_MOTION_DOT":-0.00121836,"MEAN_MOTION_DDOT":0},{"OBJECT_NAME":"STARLINK-36829","OBJECT_ID":"2026-037AB","EPOCH":"2026-03-10T12:00:01.999296","MEAN_MOTION":15.82055311,"ECCENTRICITY":0.0001469,"INCLINATION":42.9986,"RA_OF_ASC_NODE":193.3656,"ARG_OF_PERICENTER":263.4432,"MEAN_ANOMALY":47.1102,"EPHEMERIS_TYPE":0,"CLASSIFICATION_TYPE":"U","NORAD_CAT_ID":67957,"ELEMENT_SET_NO":999,"REV_AT_EPOCH":332,"BSTAR":-0.00036945,"MEAN_MOTION_DOT":-0.00077772,"MEAN_MOTION_DDOT":0},{"OBJECT_NAME":"STARLINK-36799","OBJECT_ID":"2026-037AC","EPOCH":"2026-03-10T12:00:01.999296","MEAN_MOTION":15.8205694,"ECCENTRICITY":0.0001541,"INCLINATION":42.9986,"RA_OF_ASC_NODE":193.3332,"ARG_OF_PERICENTER":261.9894,"MEAN_ANOMALY":61.3846,"EPHEMERIS_TYPE":0,"CLASSIFICATION_TYPE":"U","NORAD_CAT_ID":67958,"ELEMENT_SET_NO":999,"REV_AT_EPOCH":332,"BSTAR":-0.00047579,"MEAN_MOTION_DOT":-0.00099762,"MEAN_MOTION_DDOT":0},{"OBJECT_NAME":"STARLINK-36834","OBJECT_ID":"2026-037AD","EPOCH":"2026-03-10T12:00:01.999296","MEAN_MOTION":15.82078084,"ECCENTRICITY":0.0001522,"INCLINATION":42.9987,"RA_OF_ASC_NODE":193.3111,"ARG_OF_PERICENTER":258.3754,"MEAN_ANOMALY":73.5422,"EPHEMERIS_TYPE":0,"CLASSIFICATION_TYPE":"U","NORAD_CAT_ID":67959,"ELEMENT_SET_NO":999,"REV_AT_EPOCH":332,"BSTAR":-0.00054753,"MEAN_MOTION_DOT":-0.00114642,"MEAN_MOTION_DDOT":0}]
